BANDWAGON-2 OBJECT D    
1 62380U 24247D   26068.52261193  .00011259  00000+0  40119-3 0  9994
2 62380  44.9954 115.6710 0003488 351.1453   8.9368 15.29076102 67732
STARLINK-35616          
1 66255U 25245X   26068.81624688  .00025715  00000+0  87701-3 0  9992
2 66255  53.1574 283.4641 0001416 133.3081 226.8038 15.30212716 21279
